[Satellite]
VERSION=1.1
NAME=RS6S
NICKNAME=RS6S
TLE1=1 53311U 98067TW  22342.12691771  .00170963  00000+0  12904-2 0  9993
TLE2=2 53311  51.6326 186.5568 0008152 183.7367 176.3572 15.71368497 21812
STATUS=0
